{
 "generated_at": "2026-06-17T09:51:32Z",
 "sources": [
  {
   "name": "CelesTrak",
   "url": "https://celestrak.org/NORAD/elements/",
   "license": "frei verfügbar; Attribution. Ursprünglich USSPACECOM/Space-Track."
  },
  {
   "name": "GCAT (J. McDowell, planet4589.org)",
   "url": "https://planet4589.org/space/gcat/",
   "license": "CC-BY 4.0"
  }
 ],
 "satellites": [
  {
   "norad": 39419,
   "name": "DUBAISAT-2",
   "intl": "2013-066D",
   "group": "resource",
   "gcat": {
    "class": "C",
    "category": "IMG",
    "owner": "EIAST",
    "state": "UAE"
   },
   "omm": {
    "OBJECT_NAME": "DUBAISAT-2",
    "OBJECT_ID": "2013-066D",
    "EPOCH": "2026-06-17T04:52:46.405632",
    "MEAN_MOTION": 15.10180046,
    "ECCENTRICITY": 0.0012351,
    "INCLINATION": 97.4556,
    "RA_OF_ASC_NODE": 158.3474,
    "ARG_OF_PERICENTER": 40.5288,
    "MEAN_ANOMALY": 319.6859,
    "EPHEMERIS_TYPE": 0,
    "CLASSIFICATION_TYPE": "U",
    "NORAD_CAT_ID": 39419,
    "ELEMENT_SET_NO": 999,
    "REV_AT_EPOCH": 68639,
    "BSTAR": 0.00016722,
    "MEAN_MOTION_DOT": 0.00002672,
    "MEAN_MOTION_DDOT": 0
   }
  },
  {
   "norad": 41105,
   "name": "ELEKTRO-L 2",
   "intl": "2015-074A",
   "group": "weather",
   "gcat": {
    "class": "C",
    "category": "MET",
    "owner": "RGMS/NPOLO",
    "state": "RU"
   },
   "omm": {
    "OBJECT_NAME": "ELEKTRO-L 2",
    "OBJECT_ID": "2015-074A",
    "EPOCH": "2026-06-16T15:18:31.243968",
    "MEAN_MOTION": 1.00270425,
    "ECCENTRICITY": 0.0000972,
    "INCLINATION": 6.6931,
    "RA_OF_ASC_NODE": 70.5258,
    "ARG_OF_PERICENTER": 242.2635,
    "MEAN_ANOMALY": 167.233,
    "EPHEMERIS_TYPE": 0,
    "CLASSIFICATION_TYPE": "U",
    "NORAD_CAT_ID": 41105,
    "ELEMENT_SET_NO": 999,
    "REV_AT_EPOCH": 3850,
    "BSTAR": 0,
    "MEAN_MOTION_DOT": -0.00000124,
    "MEAN_MOTION_DDOT": 0
   }
  },
  {
   "norad": 51656,
   "name": "EOS-4",
   "intl": "2022-013A",
   "group": "sar",
   "gcat": {
    "class": "C",
    "category": "IMG-R",
    "owner": "ISRO",
    "state": "IN"
   },
   "omm": {
    "OBJECT_NAME": "EOS-4",
    "OBJECT_ID": "2022-013A",
    "EPOCH": "2026-06-17T03:57:54.265824",
    "MEAN_MOTION": 15.12723983,
    "ECCENTRICITY": 0.0001815,
    "INCLINATION": 97.5098,
    "RA_OF_ASC_NODE": 174.8149,
    "ARG_OF_PERICENTER": 89.3466,
    "MEAN_ANOMALY": 270.7972,
    "EPHEMERIS_TYPE": 0,
    "CLASSIFICATION_TYPE": "U",
    "NORAD_CAT_ID": 51656,
    "ELEMENT_SET_NO": 999,
    "REV_AT_EPOCH": 23948,
    "BSTAR": 0.00010965,
    "MEAN_MOTION_DOT": 0.00001856,
    "MEAN_MOTION_DDOT": 0
   }
  },
  {
   "norad": 36411,
   "name": "EWS-G2 (GOES 15)",
   "intl": "2010-008A",
   "group": "weather",
   "gcat": {
    "class": "C",
    "category": "MET",
    "owner": "NOAA",
    "state": "US"
   },
   "omm": {
    "OBJECT_NAME": "EWS-G2 (GOES 15)",
    "OBJECT_ID": "2010-008A",
    "EPOCH": "2026-06-16T22:35:24.010368",
    "MEAN_MOTION": 1.00275936,
    "ECCENTRICITY": 0.0005411,
    "INCLINATION": 1.2775,
    "RA_OF_ASC_NODE": 82.8648,
    "ARG_OF_PERICENTER": 42.2478,
    "MEAN_ANOMALY": 182.6632,
    "EPHEMERIS_TYPE": 0,
    "CLASSIFICATION_TYPE": "U",
    "NORAD_CAT_ID": 36411,
    "ELEMENT_SET_NO": 999,
    "REV_AT_EPOCH": 5963,
    "BSTAR": 0,
    "MEAN_MOTION_DOT": 1.4e-7,
    "MEAN_MOTION_DDOT": 0
   }
  },
  {
   "norad": 38709,
   "name": "EXACTVIEW-1 (ADS-1B)",
   "intl": "2012-039C",
   "group": "resource",
   "gcat": {
    "class": "B",
    "category": "COM",
    "owner": "EXEA",
    "state": "CA"
   },
   "omm": {
    "OBJECT_NAME": "EXACTVIEW-1 (ADS-1B)",
    "OBJECT_ID": "2012-039C",
    "EPOCH": "2026-06-16T21:21:12.608064",
    "MEAN_MOTION": 14.24984491,
    "ECCENTRICITY": 0.0011154,
    "INCLINATION": 98.9778,
    "RA_OF_ASC_NODE": 285.2732,
    "ARG_OF_PERICENTER": 167.1754,
    "MEAN_ANOMALY": 192.971,
    "EPHEMERIS_TYPE": 0,
    "CLASSIFICATION_TYPE": "U",
    "NORAD_CAT_ID": 38709,
    "ELEMENT_SET_NO": 999,
    "REV_AT_EPOCH": 72266,
    "BSTAR": 0.000059661,
    "MEAN_MOTION_DOT": 9.3e-7,
    "MEAN_MOTION_DDOT": 0
   }
  },
  {
   "norad": 40367,
   "name": "FENGYUN 2G",
   "intl": "2014-090A",
   "group": "weather",
   "gcat": {
    "class": "C",
    "category": "MET",
    "owner": "NSMC",
    "state": "CN"
   },
   "omm": {
    "OBJECT_NAME": "FENGYUN 2G",
    "OBJECT_ID": "2014-090A",
    "EPOCH": "2026-06-16T18:37:16.141728",
    "MEAN_MOTION": 1.00272344,
    "ECCENTRICITY": 0.0004095,
    "INCLINATION": 5.6375,
    "RA_OF_ASC_NODE": 72.818,
    "ARG_OF_PERICENTER": 156.3445,
    "MEAN_ANOMALY": 54.8771,
    "EPHEMERIS_TYPE": 0,
    "CLASSIFICATION_TYPE": "U",
    "NORAD_CAT_ID": 40367,
    "ELEMENT_SET_NO": 999,
    "REV_AT_EPOCH": 4199,
    "BSTAR": 0,
    "MEAN_MOTION_DOT": -0.00000308,
    "MEAN_MOTION_DDOT": 0
   }
  },
  {
   "norad": 43491,
   "name": "FENGYUN 2H",
   "intl": "2018-050A",
   "group": "weather",
   "gcat": {
    "class": "C",
    "category": "MET",
    "owner": "NSMC",
    "state": "CN"
   },
   "omm": {
    "OBJECT_NAME": "FENGYUN 2H",
    "OBJECT_ID": "2018-050A",
    "EPOCH": "2026-06-16T18:31:28.990848",
    "MEAN_MOTION": 1.00269582,
    "ECCENTRICITY": 0.0001983,
    "INCLINATION": 3.0297,
    "RA_OF_ASC_NODE": 79.0759,
    "ARG_OF_PERICENTER": 138.6061,
    "MEAN_ANOMALY": 44.6323,
    "EPHEMERIS_TYPE": 0,
    "CLASSIFICATION_TYPE": "U",
    "NORAD_CAT_ID": 43491,
    "ELEMENT_SET_NO": 999,
    "REV_AT_EPOCH": 2943,
    "BSTAR": 0,
    "MEAN_MOTION_DOT": -0.00000134,
    "MEAN_MOTION_DDOT": 0
   }
  },
  {
   "norad": 32958,
   "name": "FENGYUN 3A",
   "intl": "2008-026A",
   "group": "weather",
   "gcat": {
    "class": null,
    "category": null,
    "owner": null,
    "state": null
   },
   "omm": {
    "OBJECT_NAME": "FENGYUN 3A",
    "OBJECT_ID": "2008-026A",
    "EPOCH": "2026-06-16T18:22:10.191072",
    "MEAN_MOTION": 14.1957106,
    "ECCENTRICITY": 0.0009574,
    "INCLINATION": 98.6883,
    "RA_OF_ASC_NODE": 108.6064,
    "ARG_OF_PERICENTER": 124.7763,
    "MEAN_ANOMALY": 235.4315,
    "EPHEMERIS_TYPE": 0,
    "CLASSIFICATION_TYPE": "U",
    "NORAD_CAT_ID": 32958,
    "ELEMENT_SET_NO": 999,
    "REV_AT_EPOCH": 93534,
    "BSTAR": 0.000044318,
    "MEAN_MOTION_DOT": 5e-7,
    "MEAN_MOTION_DDOT": 0
   }
  },
  {
   "norad": 37214,
   "name": "FENGYUN 3B",
   "intl": "2010-059A",
   "group": "weather",
   "gcat": {
    "class": null,
    "category": null,
    "owner": null,
    "state": null
   },
   "omm": {
    "OBJECT_NAME": "FENGYUN 3B",
    "OBJECT_ID": "2010-059A",
    "EPOCH": "2026-06-17T05:41:28.086432",
    "MEAN_MOTION": 14.14840646,
    "ECCENTRICITY": 0.0021908,
    "INCLINATION": 98.9617,
    "RA_OF_ASC_NODE": 214.2519,
    "ARG_OF_PERICENTER": 183.7669,
    "MEAN_ANOMALY": 258.086,
    "EPHEMERIS_TYPE": 0,
    "CLASSIFICATION_TYPE": "U",
    "NORAD_CAT_ID": 37214,
    "ELEMENT_SET_NO": 999,
    "REV_AT_EPOCH": 80743,
    "BSTAR": -0.000096994,
    "MEAN_MOTION_DOT": -0.00000233,
    "MEAN_MOTION_DDOT": 0
   }
  },
  {
   "norad": 39260,
   "name": "FENGYUN 3C",
   "intl": "2013-052A",
   "group": "weather",
   "gcat": {
    "class": "C",
    "category": "MET",
    "owner": "NSMC",
    "state": "CN"
   },
   "omm": {
    "OBJECT_NAME": "FENGYUN 3C",
    "OBJECT_ID": "2013-052A",
    "EPOCH": "2026-06-17T04:26:37.976064",
    "MEAN_MOTION": 14.15754974,
    "ECCENTRICITY": 0.001526,
    "INCLINATION": 98.4987,
    "RA_OF_ASC_NODE": 142.06,
    "ARG_OF_PERICENTER": 27.629,
    "MEAN_ANOMALY": 332.5693,
    "EPHEMERIS_TYPE": 0,
    "CLASSIFICATION_TYPE": "U",
    "NORAD_CAT_ID": 39260,
    "ELEMENT_SET_NO": 999,
    "REV_AT_EPOCH": 65856,
    "BSTAR": 0.000052095,
    "MEAN_MOTION_DOT": 6.1e-7,
    "MEAN_MOTION_DDOT": 0
   }
  }
 ]
}
